COSMOS 2361 [-]         
1 25590U 98076A   17286.44872120  .00000037  00000-0  23810-4 0  9991
2 25590  82.9379  28.5742 0030242 276.0036 129.6917 13.72939122941901
COSMOS 2378 [-]         
1 26818U 01023A   17286.59734699  .00000027  00000-0  12864-4 0  9991
2 26818  82.9301  49.6354 0031778 227.9290 131.9171 13.73917620819794
COSMOS 2389 [-]         
1 27436U 02026A   17286.57356274  .00000023  00000-0  76894-5 0  9999
2 27436  82.9537 353.6094 0047770 100.5170   8.4072 13.74918360771689
COSMOS 2398 [-]         
1 27818U 03023A   17286.45874442  .00000038  00000-0  24800-4 0  9995
2 27818  82.9477 309.7691 0032647 112.9067 247.5523 13.72148846719153
COSMOS 2407 [+]         
1 28380U 04028A   17286.22396201  .00000024  00000-0  82261-5 0  9994
2 28380  82.9580 260.9376 0040502 112.0243 248.5213 13.76045082664234
COSMOS 2414 [+]         
1 28521U 05002A   17286.46700789  .00000010  00000-0 -46138-5 0  9999
2 28521  82.9465 279.3951 0040948   4.2733 355.8773 13.87591397644683
COSMOS 2429 [-]         
1 32052U 07038A   17286.40710074  .00000022  00000-0  65192-5 0  9999
2 32052  82.9845  20.6729 0039812  83.0822 277.4860 13.74894235506193
COSMOS 2454 [-]         
1 35635U 09039A   17286.41484057  .00000019  00000-0  29048-5 0  9998
2 35635  82.9528 268.9642 0018878 328.6535  31.3502 13.89617549417479
COSMOS 2463 [+]         
1 36519U 10017A   17286.64689256  .00000058  00000-0  48021-4 0  9995
2 36519  82.9619  57.1381 0034942 281.3000  78.4230 13.71416775373708
